STARLINK-37145          
1 68548U 26070G   26111.00002315 -.00029214  00000+0 -14498-3 0  9996
2 68548  53.1576 172.2996 0001018  78.5111   4.5397 15.80870981  4187
STARLINK-36204          
1 68549U 26070H   26111.00002315 -.00014047  00000+0 -67775-4 0  9992
2 68549  53.1575 172.2817 0001130 104.6417 346.9555 15.80863289  4131
STARLINK-36304          
1 68550U 26070J   26111.00002315 -.00042506  00000+0 -21284-3 0  9999
2 68550  53.1576 172.2639 0001397  49.8676  50.2717 15.80875288  4135
STARLINK-37288          
1 68551U 26070K   26111.00002315 -.00029898  00000+0 -14846-3 0  9995
2 68551  53.1578 172.2550 0001639 127.9621 336.4464 15.80870929  4187
STARLINK-37295          
1 68552U 26070L   26111.00002315 -.00003956  00000+0 -16520-4 0  9995
2 68552  53.1575 172.2727 0001199 123.5335 332.3340 15.80858169  4186
STARLINK-37254          
1 68553U 26070M   26111.00002315 -.00041751  00000+0 -20901-3 0  9998
2 68553  53.1578 172.2368 0000940  91.1396  21.8183 15.80873220  4181
STARLINK-37255          
1 68554U 26070N   26111.00002315 -.00074933  00000+0 -37903-3 0  9997
2 68554  53.1579 172.2282 0000762  76.5527  40.6669 15.80894837  4188
STARLINK-37146          
1 68555U 26070P   26111.00002315 -.00006849  00000+0 -31203-4 0  9997
2 68555  53.1577 172.2457 0001482  75.1551  33.5323 15.80857031  4186
STARLINK-37144          
1 68556U 26070Q   26111.00002315 -.00004714  00000+0 -20367-4 0  9996
2 68556  53.1580 172.2105 0000880 117.9332   7.8390 15.80862336  4186
STARLINK-37210          
1 68557U 26070R   26111.00002315 -.00042890  00000+0 -21480-3 0  9990
2 68557  53.1581 172.2198 0001151  98.6614  22.8348 15.80875970  4188
STARLINK-37227          
1 68558U 26070S   26111.00002315 -.00030882  00000+0 -15351-3 0  9999
2 68558  53.1580 172.2016 0001201  84.6824  45.3583 15.80868297  4186
STARLINK-37294          
1 68559U 26070T   26111.00002315 -.00023061  00000+0 -11364-3 0  9991
2 68559  53.1580 172.1931 0001379  88.0052  46.3094 15.80865230  4181
STARLINK-37291          
1 68560U 26070U   26111.00002315  .00007657  00000+0  42338-4 0  9990
2 68560  53.1580 172.1842 0001159  72.3102  66.2773 15.80851893  4187
STARLINK-37114          
1 68561U 26070V   26111.00002315 -.00045779  00000+0 -22956-3 0  9993
2 68561  53.1581 172.1753 0001453 118.9760  23.8772 15.80877682  4186
STARLINK-37233          
1 68562U 26070W   26111.00002315 -.00023763  00000+0 -11719-3 0  9998
2 68562  53.1581 172.1576 0000914 105.0911  46.3057 15.80872372  4183
STARLINK-36238          
1 68563U 26070X   26111.00002315 -.00009529  00000+0 -44811-4 0  9993
2 68563  53.1580 172.1666 0001205  89.2118  57.9165 15.80862583  4135
