[{"OBJECT_NAME":"STARLINK-37145","OBJECT_ID":"2026-070G","EPOCH":"2026-04-21T00:00:02.000160","MEAN_MOTION":15.80870981,"ECCENTRICITY":0.00010182,"INCLINATION":53.1576,"RA_OF_ASC_NODE":172.2996,"ARG_OF_PERICENTER":78.5111,"MEAN_ANOMALY":4.5397,"EPHEMERIS_TYPE":0,"CLASSIFICATION_TYPE":"U","NORAD_CAT_ID":68548,"ELEMENT_SET_NO":999,"REV_AT_EPOCH":418,"BSTAR":-0.00014498172,"MEAN_MOTION_DOT":-0.00029214,"MEAN_MOTION_DDOT":0},{"OBJECT_NAME":"STARLINK-36204","OBJECT_ID":"2026-070H","EPOCH":"2026-04-21T00:00:02.000160","MEAN_MOTION":15.80863289,"ECCENTRICITY":0.00011304,"INCLINATION":53.1575,"RA_OF_ASC_NODE":172.2817,"ARG_OF_PERICENTER":104.6417,"MEAN_ANOMALY":346.9555,"EPHEMERIS_TYPE":0,"CLASSIFICATION_TYPE":"U","NORAD_CAT_ID":68549,"ELEMENT_SET_NO":999,"REV_AT_EPOCH":413,"BSTAR":-6.7774963e-5,"MEAN_MOTION_DOT":-0.00014047,"MEAN_MOTION_DDOT":0},{"OBJECT_NAME":"STARLINK-36304","OBJECT_ID":"2026-070J","EPOCH":"2026-04-21T00:00:02.000160","MEAN_MOTION":15.80875288,"ECCENTRICITY":0.00013973,"INCLINATION":53.1576,"RA_OF_ASC_NODE":172.2639,"ARG_OF_PERICENTER":49.8676,"MEAN_ANOMALY":50.2717,"EPHEMERIS_TYPE":0,"CLASSIFICATION_TYPE":"U","NORAD_CAT_ID":68550,"ELEMENT_SET_NO":999,"REV_AT_EPOCH":413,"BSTAR":-0.00021283617,"MEAN_MOTION_DOT":-0.00042506,"MEAN_MOTION_DDOT":0},{"OBJECT_NAME":"STARLINK-37288","OBJECT_ID":"2026-070K","EPOCH":"2026-04-21T00:00:02.000160","MEAN_MOTION":15.80870929,"ECCENTRICITY":0.00016393,"INCLINATION":53.1578,"RA_OF_ASC_NODE":172.255,"ARG_OF_PERICENTER":127.9621,"MEAN_ANOMALY":336.4464,"EPHEMERIS_TYPE":0,"CLASSIFICATION_TYPE":"U","NORAD_CAT_ID":68551,"ELEMENT_SET_NO":999,"REV_AT_EPOCH":418,"BSTAR":-0.00014845762,"MEAN_MOTION_DOT":-0.00029898,"MEAN_MOTION_DDOT":0},{"OBJECT_NAME":"STARLINK-37295","OBJECT_ID":"2026-070L","EPOCH":"2026-04-21T00:00:02.000160","MEAN_MOTION":15.80858169,"ECCENTRICITY":0.00011998,"INCLINATION":53.1575,"RA_OF_ASC_NODE":172.2727,"ARG_OF_PERICENTER":123.5335,"MEAN_ANOMALY":332.334,"EPHEMERIS_TYPE":0,"CLASSIFICATION_TYPE":"U","NORAD_CAT_ID":68552,"ELEMENT_SET_NO":999,"REV_AT_EPOCH":418,"BSTAR":-1.6519663e-5,"MEAN_MOTION_DOT":-3.956e-5,"MEAN_MOTION_DDOT":0},{"OBJECT_NAME":"STARLINK-37254","OBJECT_ID":"2026-070M","EPOCH":"2026-04-21T00:00:02.000160","MEAN_MOTION":15.8087322,"ECCENTRICITY":9.402e-5,"INCLINATION":53.1578,"RA_OF_ASC_NODE":172.2368,"ARG_OF_PERICENTER":91.1396,"MEAN_ANOMALY":21.8183,"EPHEMERIS_TYPE":0,"CLASSIFICATION_TYPE":"U","NORAD_CAT_ID":68553,"ELEMENT_SET_NO":999,"REV_AT_EPOCH":418,"BSTAR":-0.00020900982,"MEAN_MOTION_DOT":-0.00041751,"MEAN_MOTION_DDOT":0},{"OBJECT_NAME":"STARLINK-37255","OBJECT_ID":"2026-070N","EPOCH":"2026-04-21T00:00:02.000160","MEAN_MOTION":15.80894837,"ECCENTRICITY":7.623e-5,"INCLINATION":53.1579,"RA_OF_ASC_NODE":172.2282,"ARG_OF_PERICENTER":76.5527,"MEAN_ANOMALY":40.6669,"EPHEMERIS_TYPE":0,"CLASSIFICATION_TYPE":"U","NORAD_CAT_ID":68554,"ELEMENT_SET_NO":999,"REV_AT_EPOCH":418,"BSTAR":-0.00037902681,"MEAN_MOTION_DOT":-0.00074933,"MEAN_MOTION_DDOT":0},{"OBJECT_NAME":"STARLINK-37146","OBJECT_ID":"2026-070P","EPOCH":"2026-04-21T00:00:02.000160","MEAN_MOTION":15.80857031,"ECCENTRICITY":0.00014827,"INCLINATION":53.1577,"RA_OF_ASC_NODE":172.2457,"ARG_OF_PERICENTER":75.1551,"MEAN_ANOMALY":33.5323,"EPHEMERIS_TYPE":0,"CLASSIFICATION_TYPE":"U","NORAD_CAT_ID":68555,"ELEMENT_SET_NO":999,"REV_AT_EPOCH":418,"BSTAR":-3.1203378e-5,"MEAN_MOTION_DOT":-6.849e-5,"MEAN_MOTION_DDOT":0},{"OBJECT_NAME":"STARLINK-37144","OBJECT_ID":"2026-070Q","EPOCH":"2026-04-21T00:00:02.000160","MEAN_MOTION":15.80862336,"ECCENTRICITY":8.804e-5,"INCLINATION":53.158,"RA_OF_ASC_NODE":172.2105,"ARG_OF_PERICENTER":117.9332,"MEAN_ANOMALY":7.839,"EPHEMERIS_TYPE":0,"CLASSIFICATION_TYPE":"U","NORAD_CAT_ID":68556,"ELEMENT_SET_NO":999,"REV_AT_EPOCH":418,"BSTAR":-2.0367287e-5,"MEAN_MOTION_DOT":-4.714e-5,"MEAN_MOTION_DDOT":0},{"OBJECT_NAME":"STARLINK-37210","OBJECT_ID":"2026-070R","EPOCH":"2026-04-21T00:00:02.000160","MEAN_MOTION":15.8087597,"ECCENTRICITY":0.00011512,"INCLINATION":53.1581,"RA_OF_ASC_NODE":172.2198,"ARG_OF_PERICENTER":98.6614,"MEAN_ANOMALY":22.8348,"EPHEMERIS_TYPE":0,"CLASSIFICATION_TYPE":"U","NORAD_CAT_ID":68557,"ELEMENT_SET_NO":999,"REV_AT_EPOCH":418,"BSTAR":-0.00021480495,"MEAN_MOTION_DOT":-0.0004289,"MEAN_MOTION_DDOT":0},{"OBJECT_NAME":"STARLINK-37227","OBJECT_ID":"2026-070S","EPOCH":"2026-04-21T00:00:02.000160","MEAN_MOTION":15.80868297,"ECCENTRICITY":0.00012016,"INCLINATION":53.158,"RA_OF_ASC_NODE":172.2016,"ARG_OF_PERICENTER":84.6824,"MEAN_ANOMALY":45.3583,"EPHEMERIS_TYPE":0,"CLASSIFICATION_TYPE":"U","NORAD_CAT_ID":68558,"ELEMENT_SET_NO":999,"REV_AT_EPOCH":418,"BSTAR":-0.00015350794,"MEAN_MOTION_DOT":-0.00030882,"MEAN_MOTION_DDOT":0},{"OBJECT_NAME":"STARLINK-37294","OBJECT_ID":"2026-070T","EPOCH":"2026-04-21T00:00:02.000160","MEAN_MOTION":15.8086523,"ECCENTRICITY":0.00013797,"INCLINATION":53.158,"RA_OF_ASC_NODE":172.1931,"ARG_OF_PERICENTER":88.0052,"MEAN_ANOMALY":46.3094,"EPHEMERIS_TYPE":0,"CLASSIFICATION_TYPE":"U","NORAD_CAT_ID":68559,"ELEMENT_SET_NO":999,"REV_AT_EPOCH":418,"BSTAR":-0.00011364145,"MEAN_MOTION_DOT":-0.00023061,"MEAN_MOTION_DDOT":0},{"OBJECT_NAME":"STARLINK-37291","OBJECT_ID":"2026-070U","EPOCH":"2026-04-21T00:00:02.000160","MEAN_MOTION":15.80851893,"ECCENTRICITY":0.00011598,"INCLINATION":53.158,"RA_OF_ASC_NODE":172.1842,"ARG_OF_PERICENTER":72.3102,"MEAN_ANOMALY":66.2773,"EPHEMERIS_TYPE":0,"CLASSIFICATION_TYPE":"U","NORAD_CAT_ID":68560,"ELEMENT_SET_NO":999,"REV_AT_EPOCH":418,"BSTAR":4.2338074e-5,"MEAN_MOTION_DOT":7.657e-5,"MEAN_MOTION_DDOT":0},{"OBJECT_NAME":"STARLINK-37114","OBJECT_ID":"2026-070V","EPOCH":"2026-04-21T00:00:02.000160","MEAN_MOTION":15.80877682,"ECCENTRICITY":0.00014538,"INCLINATION":53.1581,"RA_OF_ASC_NODE":172.1753,"ARG_OF_PERICENTER":118.976,"MEAN_ANOMALY":23.8772,"EPHEMERIS_TYPE":0,"CLASSIFICATION_TYPE":"U","NORAD_CAT_ID":68561,"ELEMENT_SET_NO":999,"REV_AT_EPOCH":418,"BSTAR":-0.00022955879,"MEAN_MOTION_DOT":-0.00045779,"MEAN_MOTION_DDOT":0},{"OBJECT_NAME":"STARLINK-37233","OBJECT_ID":"2026-070W","EPOCH":"2026-04-21T00:00:02.000160","MEAN_MOTION":15.80872372,"ECCENTRICITY":9.14e-5,"INCLINATION":53.1581,"RA_OF_ASC_NODE":172.1576,"ARG_OF_PERICENTER":105.0911,"MEAN_ANOMALY":46.3057,"EPHEMERIS_TYPE":0,"CLASSIFICATION_TYPE":"U","NORAD_CAT_ID":68562,"ELEMENT_SET_NO":999,"REV_AT_EPOCH":418,"BSTAR":-0.00011719162,"MEAN_MOTION_DOT":-0.00023763,"MEAN_MOTION_DDOT":0},{"OBJECT_NAME":"STARLINK-36238","OBJECT_ID":"2026-070X","EPOCH":"2026-04-21T00:00:02.000160","MEAN_MOTION":15.80862583,"ECCENTRICITY":0.00012058,"INCLINATION":53.158,"RA_OF_ASC_NODE":172.1666,"ARG_OF_PERICENTER":89.2118,"MEAN_ANOMALY":57.9165,"EPHEMERIS_TYPE":0,"CLASSIFICATION_TYPE":"U","NORAD_CAT_ID":68563,"ELEMENT_SET_NO":999,"REV_AT_EPOCH":413,"BSTAR":-4.4811077e-5,"MEAN_MOTION_DOT":-9.529e-5,"MEAN_MOTION_DDOT":0}]
